STARLINK-30874          
1 58227U 23170X   26068.37761980 -.00003268  00000+0 -11224-3 0  9993
2 58227  43.0017 195.8134 0001718 286.1371  73.9291 15.26726036130257
BLUEBON                 
1 62688U 25009CH  26068.70316231  .00010452  00000+0  37313-3 0  9992
2 62688  97.4017 152.2033 0001193  43.3900 316.7434 15.29047253 63767
